{
  "type": "FeatureCollection",
  "features": [
    {
      "type": "Feature",
      "properties": {
        "norad_id": 41866,
        "name": "GOES 16",
        "group": "weather",
        "lat": 0.03440249539240337,
        "lon": 124.12267685786904,
        "alt_km": 35796.72364621428,
        "timestamp": "2025-12-10T09:57:44.347791+00:00",
        "meta_object_name": "GOES 16",
        "meta_object_id": "2016-071A",
        "meta_epoch": "2025-12-10T04:31:38.802720",
        "meta_mean_motion": 1.00270933,
        "meta_eccentricity": 0.0003362,
        "meta_inclination": 0.0644,
        "meta_ra_of_asc_node": 105.0893,
        "meta_arg_of_pericenter": 156.0186,
        "meta_mean_anomaly": 141.2987,
        "meta_ephemeris_type": 0,
        "meta_classification_type": "U",
        "meta_norad_cat_id": 41866,
        "meta_element_set_no": 999,
        "meta_rev_at_epoch": 3320,
        "meta_bstar": 0,
        "meta_mean_motion_dot": -8.8e-07,
        "meta_mean_motion_ddot": 0,
        "tle_line1": "1 41866U 16071A   25344.18864355 -.00000088  00000+0  00000+0 0  9993",
        "tle_line2": "2 41866   0.0644 105.0893 0003362 156.0186 141.2987  1.00270933 33203"
      },
      "geometry": {
        "type": "Point",
        "coordinates": [
          124.12267685786904,
          0.03440249539240337
        ]
      }
    },
    {
      "type": "Feature",
      "properties": {
        "norad_id": 41882,
        "name": "FENGYUN 4A",
        "group": "weather",
        "lat": -1.8409010695870796,
        "lon": -7.2726205947431595,
        "alt_km": 35797.9945204646,
        "timestamp": "2025-12-10T09:57:44.347803+00:00",
        "meta_object_name": "FENGYUN 4A",
        "meta_object_id": "2016-077A",
        "meta_epoch": "2025-12-09T21:00:35.659872",
        "meta_mean_motion": 1.00275053,
        "meta_eccentricity": 0.0004889,
        "meta_inclination": 1.8422,
        "meta_ra_of_asc_node": 82.422,
        "meta_arg_of_pericenter": 142.7758,
        "meta_mean_anomaly": 292.6611,
        "meta_ephemeris_type": 0,
        "meta_classification_type": "U",
        "meta_norad_cat_id": 41882,
        "meta_element_set_no": 999,
        "meta_rev_at_epoch": 3303,
        "meta_bstar": 0,
        "meta_mean_motion_dot": -3.54e-06,
        "meta_mean_motion_ddot": 0,
        "tle_line1": "1 41882U 16077A   25343.87541273 -.00000354  00000+0  00000+0 0  9999",
        "tle_line2": "2 41882   1.8422  82.4220 0004889 142.7758 292.6611  1.00275053 33032"
      },
      "geometry": {
        "type": "Point",
        "coordinates": [
          -7.2726205947431595,
          -1.8409010695870796
        ]
      }
    },
    {
      "type": "Feature",
      "properties": {
        "norad_id": 41884,
        "name": "CYGFM05",
        "group": "weather",
        "lat": -6.162960119482797,
        "lon": 53.42427422604655,
        "alt_km": 430.2345434869994,
        "timestamp": "2025-12-10T09:57:44.347814+00:00",
        "meta_object_name": "CYGFM05",
        "meta_object_id": "2016-078A",
        "meta_epoch": "2025-12-09T13:52:51.612096",
        "meta_mean_motion": 15.47454273,
        "meta_eccentricity": 0.0009703,
        "meta_inclination": 34.9598,
        "meta_ra_of_asc_node": 67.7793,
        "meta_arg_of_pericenter": 153.8808,
        "meta_mean_anomaly": 206.2405,
        "meta_ephemeris_type": 0,
        "meta_classification_type": "U",
        "meta_norad_cat_id": 41884,
        "meta_element_set_no": 999,
        "meta_rev_at_epoch": 49927,
        "meta_bstar": 0.00049142,
        "meta_mean_motion_dot": 0.0002606,
        "meta_mean_motion_ddot": 0,
        "tle_line1": "1 41884U 16078A   25343.57837514  .00026060  00000+0  49142-3 0  9990",
        "tle_line2": "2 41884  34.9598  67.7793 0009703 153.8808 206.2405 15.47454273499278"
      },
      "geometry": {
        "type": "Point",
        "coordinates": [
          53.42427422604655,
          -6.162960119482797
        ]
      }
    },
    {
      "type": "Feature",
      "properties": {
        "norad_id": 41885,
        "name": "CYGFM04",
        "group": "weather",
        "lat": -14.492756062862107,
        "lon": -121.10742468662183,
        "alt_km": 410.6926892988049,
        "timestamp": "2025-12-10T09:57:44.347824+00:00",
        "meta_object_name": "CYGFM04",
        "meta_object_id": "2016-078B",
        "meta_epoch": "2025-12-10T04:26:31.717248",
        "meta_mean_motion": 15.50188708,
        "meta_eccentricity": 0.0009185,
        "meta_inclination": 34.9354,
        "meta_ra_of_asc_node": 38.6669,
        "meta_arg_of_pericenter": 187.7747,
        "meta_mean_anomaly": 172.2834,
        "meta_ephemeris_type": 0,
        "meta_classification_type": "U",
        "meta_norad_cat_id": 41885,
        "meta_element_set_no": 999,
        "meta_rev_at_epoch": 49954,
        "meta_bstar": 0.0005073,
        "meta_mean_motion_dot": 0.00029637,
        "meta_mean_motion_ddot": 0,
        "tle_line1": "1 41885U 16078B   25344.18508932  .00029637  00000+0  50730-3 0  9996",
        "tle_line2": "2 41885  34.9354  38.6669 0009185 187.7747 172.2834 15.50188708499549"
      },
      "geometry": {
        "type": "Point",
        "coordinates": [
          -121.10742468662183,
          -14.492756062862107
        ]
      }
    },
    {
      "type": "Feature",
      "properties": {
        "norad_id": 41886,
        "name": "CYGFM02",
        "group": "weather",
        "lat": -15.292524453403196,
        "lon": -121.43230466637235,
        "alt_km": 405.7487437453956,
        "timestamp": "2025-12-10T09:57:44.347836+00:00",
        "meta_object_name": "CYGFM02",
        "meta_object_id": "2016-078C",
        "meta_epoch": "2025-12-10T04:26:26.152224",
        "meta_mean_motion": 15.51556712,
        "meta_eccentricity": 0.0010877,
        "meta_inclination": 34.9443,
        "meta_ra_of_asc_node": 37.0265,
        "meta_arg_of_pericenter": 187.2592,
        "meta_mean_anomaly": 172.7975,
        "meta_ephemeris_type": 0,
        "meta_classification_type": "U",
        "meta_norad_cat_id": 41886,
        "meta_element_set_no": 999,
        "meta_rev_at_epoch": 49967,
        "meta_bstar": 0.00051806,
        "meta_mean_motion_dot": 0.00031816,
        "meta_mean_motion_ddot": 0,
        "tle_line1": "1 41886U 16078C   25344.18502491  .00031816  00000+0  51806-3 0  9998",
        "tle_line2": "2 41886  34.9443  37.0265 0010877 187.2592 172.7975 15.51556712499677"
      },
      "geometry": {
        "type": "Point",
        "coordinates": [
          -121.43230466637235,
          -15.292524453403196
        ]
      }
    },
    {
      "type": "Feature",
      "properties": {
        "norad_id": 41887,
        "name": "CYGFM01",
        "group": "weather",
        "lat": 15.844968384086828,
        "lon": 88.66557926846781,
        "alt_km": 422.557579661202,
        "timestamp": "2025-12-10T09:57:44.347846+00:00",
        "meta_object_name": "CYGFM01",
        "meta_object_id": "2016-078D",
        "meta_epoch": "2025-12-09T15:16:01.554240",
        "meta_mean_motion": 15.48030549,
        "meta_eccentricity": 0.0009257,
        "meta_inclination": 34.9428,
        "meta_ra_of_asc_node": 69.7736,
        "meta_arg_of_pericenter": 146.0748,
        "meta_mean_anomaly": 214.0567,
        "meta_ephemeris_type": 0,
        "meta_classification_type": "U",
        "meta_norad_cat_id": 41887,
        "meta_element_set_no": 999,
        "meta_rev_at_epoch": 49922,
        "meta_bstar": 0.0005095,
        "meta_mean_motion_dot": 0.00027573,
        "meta_mean_motion_ddot": 0,
        "tle_line1": "1 41887U 16078D   25343.63612910  .00027573  00000+0  50950-3 0  9990",
        "tle_line2": "2 41887  34.9428  69.7736 0009257 146.0748 214.0567 15.48030549499221"
      },
      "geometry": {
        "type": "Point",
        "coordinates": [
          88.66557926846781,
          15.844968384086828
        ]
      }
    },
    {
      "type": "Feature",
      "properties": {
        "norad_id": 41888,
        "name": "CYGFM08",
        "group": "weather",
        "lat": 31.75176132991222,
        "lon": 110.10123182435147,
        "alt_km": 415.6692807407535,
        "timestamp": "2025-12-10T09:57:44.347857+00:00",
        "meta_object_name": "CYGFM08",
        "meta_object_id": "2016-078E",
        "meta_epoch": "2025-12-09T21:18:10.653120",
        "meta_mean_motion": 15.49241615,
        "meta_eccentricity": 0.0011207,
        "meta_inclination": 34.9465,
        "meta_ra_of_asc_node": 51.154,
        "meta_arg_of_pericenter": 173.135,
        "meta_mean_anomaly": 186.9527,
        "meta_ephemeris_type": 0,
        "meta_classification_type": "U",
        "meta_norad_cat_id": 41888,
        "meta_element_set_no": 999,
        "meta_rev_at_epoch": 49949,
        "meta_bstar": 0.00051076,
        "meta_mean_motion_dot": 0.00028874,
        "meta_mean_motion_ddot": 0,
        "tle_line1": "1 41888U 16078E   25343.88762330  .00028874  00000+0  51076-3 0  9995",
        "tle_line2": "2 41888  34.9465  51.1540 0011207 173.1350 186.9527 15.49241615499490"
      },
      "geometry": {
        "type": "Point",
        "coordinates": [
          110.10123182435147,
          31.75176132991222
        ]
      }
    }
  ]
}